start=new Date('2022-02-23T00:00:00.000Z').valueOf();
sats=[{"SITE":"AFETR","MEAN_MOTION_DOT":"-0.00000611","ELEMENT_SET_NO":"999","EPHEMERIS_TYPE":"0","OBJECT_NAME":"STARLINK-1117","TLE_LINE1":"1 44952U 20001AQ  22053.85300955 -.00000611  00000-0 -22119-4 0  9993","MEAN_ANOMALY":"306.9832","COUNTRY_CODE":"US","OBJECT_ID":"2020-001AQ","INCLINATION":"53.0546","CENTER_NAME":"EARTH","BSTAR":"-0.00002211900000","TLE_LINE2":"2 44952  53.0546 111.9074 0001610  53.1305 306.9832 15.06392133117684","SEMIMAJOR_AXIS":"6925.373","TIME_SYSTEM":"UTC","FILE":"3314780","ECCENTRICITY":"0.00016100","GP_ID":"196682640","ARG_OF_PERICENTER":"53.1305","LAUNCH_DATE":"2020-01-07","REV_AT_EPOCH":"11768","EPOCH":"2022-02-22T20:28:20.025120","RA_OF_ASC_NODE":"111.9074","PERIOD":"95.593","APOAPSIS":"548.353","MEAN_MOTION":"15.06392133","PERIAPSIS":"546.123","REF_FRAME":"TEME","OBJECT_TYPE":"PAYLOAD","CLASSIFICATION_TYPE":"U","MEAN_MOTION_DDOT":"0.0000000000000","MEAN_ELEMENT_THEORY":"SGP4","RCS_SIZE":"LARGE","DECAY_DATE":null,"NORAD_CAT_ID":"44952"},{"APOAPSIS":"548.274","EPOCH":"2022-02-22T20:53:31.441920","RA_OF_ASC_NODE":"111.8261","PERIOD":"95.593","REF_FRAME":"TEME","MEAN_MOTION":"15.06384695","PERIAPSIS":"546.247","MEAN_MOTION_DDOT":"0.0000000000000","CLASSIFICATION_TYPE":"U","OBJECT_TYPE":"PAYLOAD","NORAD_CAT_ID":"44953","RCS_SIZE":"LARGE","MEAN_ELEMENT_THEORY":"SGP4","DECAY_DATE":null,"MEAN_ANOMALY":"297.6096","TLE_LINE1":"1 44953U 20001AR  22053.87050280 -.00001311  00000-0 -69187-4 0  9993","OBJECT_NAME":"STARLINK-1124","COUNTRY_CODE":"US","EPHEMERIS_TYPE":"0","SITE":"AFETR","ELEMENT_SET_NO":"999","MEAN_MOTION_DOT":"-0.00001311","BSTAR":"-0.00006918700000","CENTER_NAME":"EARTH","SEMIMAJOR_AXIS":"6925.395","TLE_LINE2":"2 44953  53.0530 111.8261 0001464  62.5041 297.6096 15.06384695118978","OBJECT_ID":"2020-001AR","INCLINATION":"53.0530","ECCENTRICITY":"0.00014640","GP_ID":"196681388","TIME_SYSTEM":"UTC","FILE":"3314780","LAUNCH_DATE":"2020-01-07","REV_AT_EPOCH":"11897","ARG_OF_PERICENTER":"62.5041"},{"RCS_SIZE":"LARGE","MEAN_ELEMENT_THEORY":"SGP4","DECAY_DATE":null,"NORAD_CAT_ID":"44954","OBJECT_TYPE":"PAYLOAD","MEAN_MOTION_DDOT":"0.0000000000000","CLASSIFICATION_TYPE":"U","MEAN_MOTION":"15.06388919","PERIAPSIS":"546.089","REF_FRAME":"TEME","EPOCH":"2022-02-22T14:51:17.631648","PERIOD":"95.593","RA_OF_ASC_NODE":"92.9491","APOAPSIS":"548.406","ARG_OF_PERICENTER":"52.6783","REV_AT_EPOCH":"11787","LAUNCH_DATE":"2020-01-07","FILE":"3314780","TIME_SYSTEM":"UTC","ECCENTRICITY":"0.00016730","GP_ID":"196681638","OBJECT_ID":"2020-001AS","INCLINATION":"53.0534","BSTAR":"-0.00003693300000","CENTER_NAME":"EARTH","SEMIMAJOR_AXIS":"6925.383","TLE_LINE2":"2 44954  53.0534  92.9491 0001673  52.6783 307.4358 15.06388919117874","EPHEMERIS_TYPE":"0","SITE":"AFETR","ELEMENT_SET_NO":"999","MEAN_MOTION_DOT":"-0.00000831","MEAN_ANOMALY":"307.4358","TLE_LINE1":"1 44954U 20001AS  22053.61895407 -.00000831  00000-0 -36933-4 0  9993","OBJECT_NAME":"STARLINK-1066","COUNTRY_CODE":"US"},{"MEAN_ELEMENT_THEORY":"SGP4","RCS_SIZE":"LARGE","DECAY_DATE":null,"NORAD_CAT_ID":"44955","OBJECT_TYPE":"PAYLOAD","CLASSIFICATION_TYPE":"U","MEAN_MOTION_DDOT":"0.0000000000000","MEAN_MOTION":"15.06391361","PERIAPSIS":"546.059","REF_FRAME":"TEME","EPOCH":"2022-02-22T19:48:31.966272","PERIOD":"95.593","RA_OF_ASC_NODE":"92.0464","APOAPSIS":"548.422","ARG_OF_PERICENTER":"61.7868","REV_AT_EPOCH":"11790","LAUNCH_DATE":"2020-01-07","TIME_SYSTEM":"UTC","FILE":"3314780","ECCENTRICITY":"0.00017060","GP_ID":"196682890","INCLINATION":"53.0541","OBJECT_ID":"2020-001AT","CENTER_NAME":"EARTH","BSTAR":"0.00013374000000","TLE_LINE2":"2 44955  53.0541  92.0464 0001706  61.7868 298.3293 15.06391361117901","SEMIMAJOR_AXIS":"6925.375","SITE":"AFETR","MEAN_MOTION_DOT":"0.00001711","ELEMENT_SET_NO":"999","EPHEMERIS_TYPE":"0","OBJECT_NAME":"STARLINK-1069","TLE_LINE1":"1 44955U 20001AT  22053.82536998  .00001711  00000-0  13374-3 0  9993","MEAN_ANOMALY":"298.3293","COUNTRY_CODE":"US"},{"MEAN_MOTION":"15.06392295","PERIAPSIS":"546.093","REF_FRAME":"TEME","EPOCH":"2022-02-22T19:43:13.540800","RA_OF_ASC_NODE":"92.0542","PERIOD":"95.593","APOAPSIS":"548.381","MEAN_ELEMENT_THEORY":"SGP4","RCS_SIZE":"LARGE","DECAY_DATE":null,"NORAD_CAT_ID":"44956","OBJECT_TYPE":"PAYLOAD","CLASSIFICATION_TYPE":"U","MEAN_MOTION_DDOT":"0.0000000000000","OBJECT_ID":"2020-001AU","INCLINATION":"53.0532","CENTER_NAME":"EARTH","BSTAR":"0.00045007000000","TLE_LINE2":"2 44956  53.0532  92.0542 0001652  75.2595 284.8577 15.06392295117964","SEMIMAJOR_AXIS":"6925.372","SITE":"AFETR","MEAN_MOTION_DOT":"0.00006427","ELEMENT_SET_NO":"999","EPHEMERIS_TYPE":"0","OBJECT_NAME":"STARLINK-1070","MEAN_ANOMALY":"284.8577","TLE_LINE1":"1 44956U 20001AU  22053.82168450  .00006427  00000-0  45007-3 0  9995","COUNTRY_CODE":"US","ARG_OF_PERICENTER":"75.2595","REV_AT_EPOCH":"11796","LAUNCH_DATE":"2020-01-07","TIME_SYSTEM":"UTC","FILE":"3314780","ECCENTRICITY":"0.00016520","GP_ID":"196683141"},{"NORAD_CAT_ID":"44957","DECAY_DATE":null,"MEAN_ELEMENT_THEORY":"SGP4","RCS_SIZE":"LARGE","CLASSIFICATION_TYPE":"U","MEAN_MOTION_DDOT":"0.0000000000000","OBJECT_TYPE":"PAYLOAD","REF_FRAME":"TEME","PERIAPSIS":"546.183","MEAN_MOTION":"15.06400172","APOAPSIS":"548.244","PERIOD":"95.592","RA_OF_ASC_NODE":"93.4317","EPOCH":"2022-02-22T12:22:39.679392","REV_AT_EPOCH":"11791","LAUNCH_DATE":"2020-01-07","ARG_OF_PERICENTER":"71.4748","GP_ID":"196652620","ECCENTRICITY":"0.00014880","FILE":"3314240","TIME_SYSTEM":"UTC","TLE_LINE2":"2 44957  53.0541  93.4317 0001488  71.4748 288.6403 15.06400172117914","SEMIMAJOR_AXIS":"6925.348","CENTER_NAME":"EARTH","BSTAR":"0.00003999300000","INCLINATION":"53.0541","OBJECT_ID":"2020-001AV","COUNTRY_CODE":"US","OBJECT_NAME":"STARLINK-1074","MEAN_ANOMALY":"288.6403","TLE_LINE1":"1 44957U 20001AV  22053.51573703  .00000314  00000-0  39993-4 0  9990","ELEMENT_SET_NO":"999","SITE":"AFETR","MEAN_MOTION_DOT":"0.00000314","EPHEMERIS_TYPE":"0"},{"INCLINATION":"53.0524","OBJECT_ID":"2020-001AX","CENTER_NAME":"EARTH","BSTAR":"0.00051029000000","TLE_LINE2":"2 44959  53.0524  92.1664 0001674  53.6560 306.4583 15.06395898117959","SEMIMAJOR_AXIS":"6925.361","SITE":"AFETR","MEAN_MOTION_DOT":"0.00007326","ELEMENT_SET_NO":"999","EPHEMERIS_TYPE":"0","OBJECT_NAME":"STARLINK-1076","MEAN_ANOMALY":"306.4583","TLE_LINE1":"1 44959U 20001AX  22053.79587936  .00007326  00000-0  51029-3 0  9998","COUNTRY_CODE":"US","ARG_OF_PERICENTER":"53.6560","LAUNCH_DATE":"2020-01-07","REV_AT_EPOCH":"11795","FILE":"3314780","TIME_SYSTEM":"UTC","ECCENTRICITY":"0.00016740","GP_ID":"196682139","MEAN_MOTION":"15.06395898","PERIAPSIS":"546.067","REF_FRAME":"TEME","EPOCH":"2022-02-22T19:06:03.976704","RA_OF_ASC_NODE":"92.1664","PERIOD":"95.592","APOAPSIS":"548.385","MEAN_ELEMENT_THEORY":"SGP4","RCS_SIZE":"LARGE","DECAY_DATE":null,"NORAD_CAT_ID":"44959","OBJECT_TYPE":"PAYLOAD","CLASSIFICATION_TYPE":"U","MEAN_MOTION_DDOT":"0.0000000000000"},{"OBJECT_TYPE":"PAYLOAD","MEAN_MOTION_DDOT":"0.0000000000000","CLASSIFICATION_TYPE":"U","DECAY_DATE":null,"RCS_SIZE":"LARGE","MEAN_ELEMENT_THEORY":"SGP4","NORAD_CAT_ID":"44961","PERIOD":"95.592","RA_OF_ASC_NODE":"93.0300","EPOCH":"2022-02-22T14:30:02.654496","APOAPSIS":"548.249","PERIAPSIS":"546.189","MEAN_MOTION":"15.06398159","REF_FRAME":"TEME","FILE":"3314780","TIME_SYSTEM":"UTC","GP_ID":"196682390","ECCENTRICITY":"0.00014870","ARG_OF_PERICENTER":"69.2479","LAUNCH_DATE":"2020-01-07","REV_AT_EPOCH":"11793","EPHEMERIS_TYPE":"0","ELEMENT_SET_NO":"999","SITE":"AFETR","MEAN_MOTION_DOT":"0.00000110","COUNTRY_CODE":"US","MEAN_ANOMALY":"290.8669","TLE_LINE1":"1 44961U 20001AZ  22053.60419739  .00000110  00000-0  26256-4 0  9995","OBJECT_NAME":"STARLINK-1080","OBJECT_ID":"2020-001AZ","INCLINATION":"53.0539","SEMIMAJOR_AXIS":"6925.354","TLE_LINE2":"2 44961  53.0539  93.0300 0001487  69.2479 290.8669 15.06398159117931","BSTAR":"0.00002625600000","CENTER_NAME":"EARTH"},{"MEAN_MOTION_DDOT":"0.0000000000000","CLASSIFICATION_TYPE":"U","OBJECT_TYPE":"PAYLOAD","NORAD_CAT_ID":"44963","DECAY_DATE":null,"RCS_SIZE":"LARGE","MEAN_ELEMENT_THEORY":"SGP4","APOAPSIS":"536.519","RA_OF_ASC_NODE":"86.6214","PERIOD":"95.338","EPOCH":"2022-02-22T13:19:30.229536","REF_FRAME":"TEME","PERIAPSIS":"533.340","MEAN_MOTION":"15.10416918","GP_ID":"196682641","ECCENTRICITY":"0.00022990","TIME_SYSTEM":"UTC","FILE":"3314780","REV_AT_EPOCH":"11872","LAUNCH_DATE":"2020-01-07","ARG_OF_PERICENTER":"72.0416","COUNTRY_CODE":"US","TLE_LINE1":"1 44963U 20001BB  22053.55521099  .00015838  00000-0  96823-3 0  9993","MEAN_ANOMALY":"288.0825","OBJECT_NAME":"STARLINK-1085","EPHEMERIS_TYPE":"0","ELEMENT_SET_NO":"999","SITE":"AFETR","MEAN_MOTION_DOT":"0.00015838","SEMIMAJOR_AXIS":"6913.065","TLE_LINE2":"2 44963  52.9980  86.6214 0002299  72.0416 288.0825 15.10416918118728","BSTAR":"0.00096823000000","CENTER_NAME":"EARTH","OBJECT_ID":"2020-001BB","INCLINATION":"52.9980"},{"EPOCH":"2022-02-22T19:59:07.633536","PERIOD":"95.592","RA_OF_ASC_NODE":"91.9932","APOAPSIS":"548.244","MEAN_MOTION":"15.06402347","PERIAPSIS":"546.168","REF_FRAME":"TEME","OBJECT_TYPE":"PAYLOAD","CLASSIFICATION_TYPE":"U","MEAN_MOTION_DDOT":"0.0000000000000","MEAN_ELEMENT_THEORY":"SGP4","RCS_SIZE":"LARGE","DECAY_DATE":null,"NORAD_CAT_ID":"44964","SITE":"AFETR","ELEMENT_SET_NO":"999","MEAN_MOTION_DOT":"-0.00000676","EPHEMERIS_TYPE":"0","OBJECT_NAME":"STARLINK-1086","TLE_LINE1":"1 44964U 20001BC  22053.83272724 -.00000676  00000-0 -26513-4 0  9999","MEAN_ANOMALY":"282.1129","COUNTRY_CODE":"US","OBJECT_ID":"2020-001BC","INCLINATION":"53.0535","CENTER_NAME":"EARTH","BSTAR":"-0.00002651300000","TLE_LINE2":"2 44964  53.0535  91.9932 0001499  78.0028 282.1129 15.06402347117962","SEMIMAJOR_AXIS":"6925.341","TIME_SYSTEM":"UTC","FILE":"3314780","ECCENTRICITY":"0.00014990","GP_ID":"196681389","ARG_OF_PERICENTER":"78.0028","LAUNCH_DATE":"2020-01-07","REV_AT_EPOCH":"11796"}];
